[{"OBJECT_NAME":"JB-3 3 (ZY 2C)","OBJECT_ID":"2004-044A","EPOCH":"2026-03-09T22:02:57.764832","MEAN_MOTION":15.18506021,"ECCENTRICITY":0.00333938,"INCLINATION":97.2622,"RA_OF_ASC_NODE":226.2642,"ARG_OF_PERICENTER":206.2478,"MEAN_ANOMALY":153.7066,"EPHEMERIS_TYPE":0,"CLASSIFICATION_TYPE":"U","NORAD_CAT_ID":28470,"ELEMENT_SET_NO":999,"REV_AT_EPOCH":17271,"BSTAR":0.00032413866,"MEAN_MOTION_DOT":6.719e-5,"MEAN_MOTION_DDOT":0},{"OBJECT_NAME":"STARLINK-6207","OBJECT_ID":"2023-083AA","EPOCH":"2026-03-09T22:00:01.999584","MEAN_MOTION":15.08761849,"ECCENTRICITY":7.507e-5,"INCLINATION":43,"RA_OF_ASC_NODE":67.9134,"ARG_OF_PERICENTER":280.0703,"MEAN_ANOMALY":318.1662,"EPHEMERIS_TYPE":0,"CLASSIFICATION_TYPE":"U","NORAD_CAT_ID":56900,"ELEMENT_SET_NO":999,"REV_AT_EPOCH":572,"BSTAR":0.0038851717,"MEAN_MOTION_DOT":0.00062405,"MEAN_MOTION_DDOT":0}]
